MALLIGYONG-1            
1 58400U 23179A   24089.96281874  .00007672  00000+0  34193-3 0  9991
2 58400  97.4141 337.9971 0009831 169.7625 190.3813 15.21662907 19678
